{
  "type": "FeatureCollection",
  "features": [
    {
      "type": "Feature",
      "properties": {
        "norad_id": 39583,
        "name": "COSMOS 2251 DEB",
        "group": "cosmos-2251-debris",
        "lat": 72.44393845734842,
        "lon": -22.55921869343218,
        "alt_km": 735.8465692981972,
        "timestamp": "2025-12-25T07:00:34.446496+00:00",
        "meta_object_name": "COSMOS 2251 DEB",
        "meta_object_id": "1993-036BUN",
        "meta_epoch": "2025-12-24T09:12:01.945440",
        "meta_mean_motion": 14.60635588,
        "meta_eccentricity": 0.01369797,
        "meta_inclination": 73.9311,
        "meta_ra_of_asc_node": 224.8404,
        "meta_arg_of_pericenter": 335.8722,
        "meta_mean_anomaly": 23.6064,
        "meta_ephemeris_type": 0,
        "meta_classification_type": "U",
        "meta_norad_cat_id": 39583,
        "meta_element_set_no": 999,
        "meta_rev_at_epoch": 61949,
        "meta_bstar": 0.0015752368,
        "meta_mean_motion_dot": 8.73e-05,
        "meta_mean_motion_ddot": 0,
        "tle_line1": "1 39583U 93036BUN 25358.38335585  .00008730  00000+0  15752-2 0  9991",
        "tle_line2": "2 39583  73.9311 224.8404 0136979 335.8722  23.6064 14.60635588619499"
      },
      "geometry": {
        "type": "Point",
        "coordinates": [
          -22.55921869343218,
          72.44393845734842
        ]
      }
    },
    {
      "type": "Feature",
      "properties": {
        "norad_id": 39585,
        "name": "COSMOS 2251 DEB",
        "group": "cosmos-2251-debris",
        "lat": -16.28266436598565,
        "lon": 102.22176417767794,
        "alt_km": 745.9224360744875,
        "timestamp": "2025-12-25T07:00:34.446506+00:00",
        "meta_object_name": "COSMOS 2251 DEB",
        "meta_object_id": "1993-036BUQ",
        "meta_epoch": "2025-12-17T13:45:47.587680",
        "meta_mean_motion": 14.58681164,
        "meta_eccentricity": 0.00655713,
        "meta_inclination": 74.0421,
        "meta_ra_of_asc_node": 292.1145,
        "meta_arg_of_pericenter": 51.6529,
        "meta_mean_anomaly": 309.0503,
        "meta_ephemeris_type": 0,
        "meta_classification_type": "U",
        "meta_norad_cat_id": 39585,
        "meta_element_set_no": 999,
        "meta_rev_at_epoch": 62591,
        "meta_bstar": 0.00024435975,
        "meta_mean_motion_dot": 1.143e-05,
        "meta_mean_motion_ddot": 0,
        "tle_line1": "1 39585U 93036BUQ 25351.57346745  .00001143  00000+0  24436-3 0  9998",
        "tle_line2": "2 39585  74.0421 292.1145 0065571  51.6529 309.0503 14.58681164625913"
      },
      "geometry": {
        "type": "Point",
        "coordinates": [
          102.22176417767794,
          -16.28266436598565
        ]
      }
    },
    {
      "type": "Feature",
      "properties": {
        "norad_id": 39586,
        "name": "COSMOS 2251 DEB",
        "group": "cosmos-2251-debris",
        "lat": 70.01426041153866,
        "lon": -26.329472124754453,
        "alt_km": 854.8494660084443,
        "timestamp": "2025-12-25T07:00:34.446517+00:00",
        "meta_object_name": "COSMOS 2251 DEB",
        "meta_object_id": "1993-036BUR",
        "meta_epoch": "2025-12-15T23:50:08.053728",
        "meta_mean_motion": 14.21232237,
        "meta_eccentricity": 0.01008868,
        "meta_inclination": 74.0082,
        "meta_ra_of_asc_node": 222.4068,
        "meta_arg_of_pericenter": 356.2296,
        "meta_mean_anomaly": 66.1426,
        "meta_ephemeris_type": 0,
        "meta_classification_type": "U",
        "meta_norad_cat_id": 39586,
        "meta_element_set_no": 999,
        "meta_rev_at_epoch": 61018,
        "meta_bstar": 0.00043436803,
        "meta_mean_motion_dot": 9.7e-06,
        "meta_mean_motion_ddot": 0,
        "tle_line1": "1 39586U 93036BUR 25349.99314877  .00000970  00000+0  43437-3 0  9992",
        "tle_line2": "2 39586  74.0082 222.4068 0100886 356.2296  66.1426 14.21232237610182"
      },
      "geometry": {
        "type": "Point",
        "coordinates": [
          -26.329472124754453,
          70.01426041153866
        ]
      }
    },
    {
      "type": "Feature",
      "properties": {
        "norad_id": 39591,
        "name": "COSMOS 2251 DEB",
        "group": "cosmos-2251-debris",
        "lat": -18.23572008520635,
        "lon": 48.89786784016199,
        "alt_km": 771.9899251769475,
        "timestamp": "2025-12-25T07:00:34.446527+00:00",
        "meta_object_name": "COSMOS 2251 DEB",
        "meta_object_id": "1993-036BUW",
        "meta_epoch": "2025-12-23T22:31:12.958752",
        "meta_mean_motion": 14.41832827,
        "meta_eccentricity": 0.0029541,
        "meta_inclination": 74.019,
        "meta_ra_of_asc_node": 225.9904,
        "meta_arg_of_pericenter": 336.8177,
        "meta_mean_anomaly": 38.5171,
        "meta_ephemeris_type": 0,
        "meta_classification_type": "U",
        "meta_norad_cat_id": 39591,
        "meta_element_set_no": 999,
        "meta_rev_at_epoch": 61938,
        "meta_bstar": 0.00024268,
        "meta_mean_motion_dot": 7.71e-06,
        "meta_mean_motion_ddot": 0,
        "tle_line1": "1 39591U 93036BUW 25357.93834443  .00000771  00000+0  24268-3 0  9997",
        "tle_line2": "2 39591  74.0190 225.9904 0029541 336.8177  38.5171 14.41832827619389"
      },
      "geometry": {
        "type": "Point",
        "coordinates": [
          48.89786784016199,
          -18.23572008520635
        ]
      }
    },
    {
      "type": "Feature",
      "properties": {
        "norad_id": 40218,
        "name": "COSMOS 2251 DEB",
        "group": "cosmos-2251-debris",
        "lat": 72.88290706571284,
        "lon": -66.0139629886992,
        "alt_km": 754.6912951744334,
        "timestamp": "2025-12-25T07:00:34.446537+00:00",
        "meta_object_name": "COSMOS 2251 DEB",
        "meta_object_id": "1993-036BUX",
        "meta_epoch": "2025-12-14T10:48:31.251744",
        "meta_mean_motion": 14.41597705,
        "meta_eccentricity": 0.00168728,
        "meta_inclination": 74.0298,
        "meta_ra_of_asc_node": 245.6562,
        "meta_arg_of_pericenter": 328.6,
        "meta_mean_anomaly": 31.4147,
        "meta_ephemeris_type": 0,
        "meta_classification_type": "U",
        "meta_norad_cat_id": 40218,
        "meta_element_set_no": 999,
        "meta_rev_at_epoch": 58886,
        "meta_bstar": 0.00046023204,
        "meta_mean_motion_dot": 1.474e-05,
        "meta_mean_motion_ddot": 0,
        "tle_line1": "1 40218U 93036BUX 25348.45036171  .00001474  00000+0  46023-3 0  9998",
        "tle_line2": "2 40218  74.0298 245.6562 0016872 328.6000  31.4147 14.41597705588868"
      },
      "geometry": {
        "type": "Point",
        "coordinates": [
          -66.0139629886992,
          72.88290706571284
        ]
      }
    },
    {
      "type": "Feature",
      "properties": {
        "norad_id": 40223,
        "name": "COSMOS 2251 DEB",
        "group": "cosmos-2251-debris",
        "lat": 1.2382146865271586,
        "lon": 63.226837129712536,
        "alt_km": 554.8782247173649,
        "timestamp": "2025-12-25T07:00:34.446547+00:00",
        "meta_object_name": "COSMOS 2251 DEB",
        "meta_object_id": "1993-036BVC",
        "meta_epoch": "2025-12-21T12:06:26.690112",
        "meta_mean_motion": 15.04482505,
        "meta_eccentricity": 0.00157052,
        "meta_inclination": 73.9371,
        "meta_ra_of_asc_node": 70.6668,
        "meta_arg_of_pericenter": 278.3258,
        "meta_mean_anomaly": 95.1407,
        "meta_ephemeris_type": 0,
        "meta_classification_type": "U",
        "meta_norad_cat_id": 40223,
        "meta_element_set_no": 999,
        "meta_rev_at_epoch": 59506,
        "meta_bstar": 0.0032560994,
        "meta_mean_motion_dot": 0.00045964,
        "meta_mean_motion_ddot": 0,
        "tle_line1": "1 40223U 93036BVC 25355.50447558  .00045964  00000+0  32561-2 0  9996",
        "tle_line2": "2 40223  73.9371  70.6668 0015705 278.3258  95.1407 15.04482505595064"
      },
      "geometry": {
        "type": "Point",
        "coordinates": [
          63.226837129712536,
          1.2382146865271586
        ]
      }
    },
    {
      "type": "Feature",
      "properties": {
        "norad_id": 40228,
        "name": "COSMOS 2251 DEB",
        "group": "cosmos-2251-debris",
        "lat": -50.694821662557914,
        "lon": -143.1171737635125,
        "alt_km": 744.6506850071983,
        "timestamp": "2025-12-25T07:00:34.446558+00:00",
        "meta_object_name": "COSMOS 2251 DEB",
        "meta_object_id": "1993-036BVH",
        "meta_epoch": "2025-12-24T10:27:05.872032",
        "meta_mean_motion": 14.41015471,
        "meta_eccentricity": 0.00242372,
        "meta_inclination": 74.054,
        "meta_ra_of_asc_node": 238.9073,
        "meta_arg_of_pericenter": 298.7389,
        "meta_mean_anomaly": 245.8492,
        "meta_ephemeris_type": 0,
        "meta_classification_type": "U",
        "meta_norad_cat_id": 40228,
        "meta_element_set_no": 999,
        "meta_rev_at_epoch": 59089,
        "meta_bstar": 0.00026003762,
        "meta_mean_motion_dot": 8.12e-06,
        "meta_mean_motion_ddot": 0,
        "tle_line1": "1 40228U 93036BVH 25358.43548463  .00000812  00000+0  26004-3 0  9992",
        "tle_line2": "2 40228  74.0540 238.9073 0024237 298.7389 245.8492 14.41015471590897"
      },
      "geometry": {
        "type": "Point",
        "coordinates": [
          -143.1171737635125,
          -50.694821662557914
        ]
      }
    }
  ]
}